     3.04           N: GNSS NAV DATA    M: MIXED            RINEX VERSION / TYPE
ssrcrin-15.6.1x                         20250101 193000 UTC PGM / RUN BY / DATE 
    18                                                      LEAP SECONDS        
                                                            END OF HEADER       
S23 2025 01 01 19 37 36 0.000000000000E+00 0.000000000000E+00 3.298640000000E+05
     3.866796400000E+04 0.000000000000E+00 0.000000000000E+00 6.300000000000E+01
     1.681330800000E+04 0.000000000000E+00 0.000000000000E+00 3.276700000000E+04
     0.000000000000E+00 0.000000000000E+00 0.000000000000E+00 3.600000000000E+01
E31 2025 01 01 19 00 00-4.888168768957E-05-1.477928890381E-12 0.000000000000E+00
     3.800000000000E+01-1.668750000000E+01 3.551576508846E-09 6.021658058228E-01
    -7.562339305878E-07 1.747299684212E-04 6.150454282761E-06 5.440599939346E+03
     3.276000000000E+05 4.842877388000E-08 2.413419743431E+00-1.303851604462E-08
     9.642002505821E-01 2.094375000000E+02 1.871055224275E-01-5.558088659559E-09
    -5.125213485714E-10 2.580000000000E+02 2.347000000000E+03
     3.120000000000E+00 0.000000000000E+00 2.095475792885E-09 0.000000000000E+00
     3.299100000000E+05
S36 2025 01 01 19 38 40 0.000000000000E+00 0.000000000000E+00 3.299210000000E+05
     4.200368800000E+04 0.000000000000E+00 0.000000000000E+00 6.300000000000E+01
     3.674846960000E+03 0.000000000000E+00 0.000000000000E+00 3.276700000000E+04
     0.000000000000E+00 0.000000000000E+00 0.000000000000E+00 1.040000000000E+02
S23 2025 01 01 19 39 44 0.000000000000E+00 0.000000000000E+00 3.299910000000E+05
     3.866796400000E+04 0.000000000000E+00 0.000000000000E+00 6.300000000000E+01
     1.681330800000E+04 0.000000000000E+00 0.000000000000E+00 3.276700000000E+04
     0.000000000000E+00 0.000000000000E+00 0.000000000000E+00 3.700000000000E+01
R04 2025 01 01 19 45 00 2.708509564400E-04 1.818989403546E-12 3.300000000000E+05
     1.546135888672E+04 2.403144836426E-01-0.000000000000E+00 0.000000000000E+00
     2.028401904297E+04-2.807712554932E-02 3.725290298462E-09 6.000000000000E+00
    -8.464145507812E+02 3.587613105774E+00 2.793967723846E-09 0.000000000000E+00
E14 2025 01 01 19 30 00 5.381154478528E-04 4.368416739453E-11 0.000000000000E+00
     4.100000000000E+01 2.025000000000E+01 6.487413083938E-09-1.276907055093E+00
    -5.718320608139E-07 1.620598623995E-01 9.052455425262E-06 5.289327781677E+03
     3.294000000000E+05-6.128102540970E-07-2.857710057540E+00-3.224238753319E-06
     8.637705075087E-01 1.630625000000E+02 2.786797577442E+00-9.074306552720E-09
     8.843225498695E-10 5.170000000000E+02 2.347000000000E+03
     3.120000000000E+00 1.300000000000E+02-3.958120942116E-09-4.423782229424E-09
     3.300650000000E+05
E13 2025 01 01 19 30 00-2.861832035705E-05-3.979039320257E-13 0.000000000000E+00
     4.100000000000E+01 1.679062500000E+02 2.547606118021E-09 2.381577657857E+00
     7.880851626396E-06 3.833251539618E-04 1.737847924232E-06 5.440613317490E+03
     3.294000000000E+05-2.235174179077E-08-1.776004968913E+00 4.656612873077E-08
     9.996871146267E-01 3.219375000000E+02-1.108133148456E+00-5.588804224700E-09
     2.007226466182E-10 5.170000000000E+02 2.347000000000E+03
     3.120000000000E+00 0.000000000000E+00 2.561137080193E-09 3.259629011154E-09
     3.300650000000E+05
E26 2025 01 01 19 30 00-1.662861905061E-04 1.091393642128E-11 0.000000000000E+00
     4.100000000000E+01 1.712187500000E+02 2.787258957666E-09 1.963024312299E+00
     8.046627044678E-06 3.941277973354E-04 5.923211574554E-07 5.440604583740E+03
     3.294000000000E+05 4.284083843231E-08-1.776960893714E+00 4.656612873077E-08
     9.930086917121E-01 3.410625000000E+02-1.485500153798E+00-5.683093866528E-09
     2.014369620866E-10 5.170000000000E+02 2.347000000000E+03
     3.120000000000E+00 0.000000000000E+00-6.752088665962E-09-6.752088665962E-09
     3.300650000000E+05
S36 2025 01 01 19 41 04 0.000000000000E+00 0.000000000000E+00 3.300770000000E+05
     4.200368800000E+04 0.000000000000E+00 0.000000000000E+00 6.300000000000E+01
     3.674846960000E+03 0.000000000000E+00 0.000000000000E+00 3.276700000000E+04
     0.000000000000E+00 0.000000000000E+00 0.000000000000E+00 1.050000000000E+02
E31 2025 01 01 19 00 00-4.888011608273E-05-1.477928890381E-12 0.000000000000E+00
     3.800000000000E+01-1.668750000000E+01 3.551576508846E-09 6.021658058228E-01
    -7.562339305878E-07 1.747299684212E-04 6.150454282761E-06 5.440599939346E+03
     3.276000000000E+05 4.842877388000E-08 2.413419743431E+00-1.303851604462E-08
     9.642002505821E-01 2.094375000000E+02 1.871055224275E-01-5.558088659559E-09
    -5.125213485714E-10 5.170000000000E+02 2.347000000000E+03
     3.120000000000E+00 0.000000000000E+00 2.095475792885E-09 3.259629011154E-09
     3.300840000000E+05
S23 2025 01 01 19 41 52 0.000000000000E+00 0.000000000000E+00 3.301160000000E+05
     3.866796400000E+04 0.000000000000E+00 0.000000000000E+00 6.300000000000E+01
     1.681330800000E+04 0.000000000000E+00 0.000000000000E+00 3.276700000000E+04
     0.000000000000E+00 0.000000000000E+00 0.000000000000E+00 3.800000000000E+01
E14 2025 01 01 19 30 00 5.381153314374E-04 4.368416739453E-11 0.000000000000E+00
     4.100000000000E+01 2.025000000000E+01 6.487413083938E-09-1.276907055093E+00
    -5.718320608139E-07 1.620598623995E-01 9.052455425262E-06 5.289327781677E+03
     3.294000000000E+05-6.128102540970E-07-2.857710057540E+00-3.224238753319E-06
     8.637705075087E-01 1.630625000000E+02 2.786797577442E+00-9.074306552720E-09
     8.843225498695E-10 2.580000000000E+02 2.347000000000E+03
     3.120000000000E+00 1.600000000000E+01-3.958120942116E-09 0.000000000000E+00
     3.301400000000E+05
E13 2025 01 01 19 30 00-2.861954271793E-05-3.979039320257E-13 0.000000000000E+00
     4.100000000000E+01 1.679062500000E+02 2.547606118021E-09 2.381577657857E+00
     7.880851626396E-06 3.833251539618E-04 1.737847924232E-06 5.440613317490E+03
     3.294000000000E+05-2.235174179077E-08-1.776004968913E+00 4.656612873077E-08
     9.996871146267E-01 3.219375000000E+02-1.108133148456E+00-5.588804224700E-09
     2.007226466182E-10 2.580000000000E+02 2.347000000000E+03
     3.120000000000E+00 0.000000000000E+00 2.561137080193E-09 0.000000000000E+00
     3.301400000000E+05
E26 2025 01 01 19 30 00-1.662865979597E-04 1.091393642128E-11 0.000000000000E+00
     4.100000000000E+01 1.712187500000E+02 2.787258957666E-09 1.963024312299E+00
     8.046627044678E-06 3.941277973354E-04 5.923211574554E-07 5.440604583740E+03
     3.294000000000E+05 4.284083843231E-08-1.776960893714E+00 4.656612873077E-08
     9.930086917121E-01 3.410625000000E+02-1.485500153798E+00-5.683093866528E-09
     2.014369620866E-10 2.580000000000E+02 2.347000000000E+03
     3.120000000000E+00 0.000000000000E+00-6.752088665962E-09 0.000000000000E+00
     3.301400000000E+05
G15 2025 01 01 19 59 44 2.466165460646E-04 4.547473508865E-12 0.000000000000E+00
     6.000000000000E+00-1.205312500000E+02 4.737697344111E-09-1.796143900032E-01
    -6.286427378654E-06 1.611632527784E-02 9.013339877129E-06 5.153749774933E+03
     3.311840000000E+05-2.346932888031E-07 7.264119283726E-02 1.583248376846E-07
     9.380369189457E-01 1.969375000000E+02 1.386726722186E+00-8.384634967987E-09
     1.067901625246E-10 1.000000000000E+00 2.347000000000E+03 0.000000000000E+00
     2.000000000000E+00 0.000000000000E+00-1.024454832077E-08 6.000000000000E+00
     3.301920000000E+05 4.000000000000E+00
S36 2025 01 01 19 43 44 0.000000000000E+00 0.000000000000E+00 3.302290000000E+05
     4.200368800000E+04 0.000000000000E+00 0.000000000000E+00 6.300000000000E+01
     3.674846960000E+03 0.000000000000E+00 0.000000000000E+00 3.276700000000E+04
     0.000000000000E+00 0.000000000000E+00 0.000000000000E+00 1.060000000000E+02
S23 2025 01 01 19 44 00 0.000000000000E+00 0.000000000000E+00 3.302420000000E+05
     3.866796400000E+04 0.000000000000E+00 0.000000000000E+00 6.300000000000E+01
     1.681330800000E+04 0.000000000000E+00 0.000000000000E+00 3.276700000000E+04
     0.000000000000E+00 0.000000000000E+00 0.000000000000E+00 3.900000000000E+01
